UWE-3                   
1 39446U 13066AG  26062.84429508  .00007180  00000+0  62860-3 0  9998
2 39446  97.8593  18.3537 0048814 312.6373  47.0737 14.96096774661820
UNISAT-6                
1 40012U 14033C   26062.41795623  .00004289  00000+0  46892-3 0  9995
2 40012  97.7710 217.1252 0046430  58.1848 302.3877 14.87578755630434
DUCHIFAT-1              
1 40021U 14033M   26062.69358967  .00071797  00000+0  13196-2 0  9999
2 40021  98.0640 108.4184 0006619 100.7475 259.4520 15.48953119639346
QB50P1                  
1 40025U 14033R   26062.50739141  .00011655  00000+0  60376-3 0  9990
2 40025  98.0997  66.3728 0007689 217.9822 142.0868 15.16352684637004
LILACSAT-2              
1 40908U 15049K   26062.82598752  .00022425  00000+0  43358-3 0  9992
2 40908  97.4814  95.8472 0005588 274.8926  85.1686 15.47764147579433
FOX-1A (AO-85)          
1 40967U 15058D   26062.75439013  .00005284  00000+0  47771-3 0  9990
2 40967  64.7736 246.4691 0129213  98.3220 263.2567 14.90292727 97858
CAS-2T & KS-1Q          
1 41847U 16066G   26062.74981828  .00001890  00000+0  27184-3 0  9998
2 41847  98.3898 139.6652 0343777  89.4440 274.6126 14.44447987489576
RADFXSAT (FOX-1B)       
1 43017U 17073E   26062.76684852  .00014063  00000+0  63746-3 0  9997
2 43017  97.4872 292.1886 0155380 332.6956  26.6167 15.10717592449469
DIWATA-2B               
1 43678U 18084H   26062.85173122  .00001954  00000+0  16256-3 0  9995
2 43678  98.1031 254.6490 0011145 145.0606 215.1350 14.99921929400428
ES'HAIL 2               
1 43700U 18090A   26062.80556189  .00000130  00000+0  00000+0 0  9992
2 43700   0.0190 229.8505 0002613 146.3075 101.1819  1.00270972 26620
FOX-1CLIFF (AO-95)      
1 43770U 18099N   26062.14430379  .00013475  00000+0  55490-3 0  9990
2 43770  97.4530 122.9032 0008885  10.7969 349.3457 15.24199958397053
ITASAT                  
1 43786U 18099AE  26062.64262248  .00009887  00000+0  49452-3 0  9993
2 43786  97.4180 116.2939 0012847   7.8683 352.2750 15.17555336396894
JY1SAT (JO-97)          
1 43803U 18099AX  26062.60463825  .00022566  00000+0  77746-3 0  9999
2 43803  97.4266 125.2819 0004622 285.6842  74.3888 15.30022235397461
UWE-4                   
1 43880U 18111E   26062.76119251  .00042354  00000+0  10754-2 0  9999
2 43880  97.5856 346.8362 0008744   2.0975 358.0305 15.39499406394520
TIANYAN 01              
1 44881U 19093C   26062.82875501  .00001596  00000+0  18686-3 0  9991
2 44881  97.7627 137.6057 0015044  75.1791 285.1090 14.86325734335760
RS-44 & BREEZE-KM R/B   
1 44909U 19096E   26062.46207020  .00000009  00000+0 -13046-4 0  9995
2 44909  82.5190  49.9536 0218171  31.8470 329.5611 12.79747398288824
SALSAT                  
1 46495U 20068K   26062.77970161  .00012684  00000+0  46597-3 0  9992
2 46495  97.8847  59.5668 0008731 321.6728  38.3888 15.28039347299257
