[{"OBJECT_NAME":"UWE-3","OBJECT_ID":"2013-066AG","EPOCH":"2026-03-03T20:15:47.094912","MEAN_MOTION":14.96096774,"ECCENTRICITY":0.0048814,"INCLINATION":97.8593,"RA_OF_ASC_NODE":18.3537,"ARG_OF_PERICENTER":312.6373,"MEAN_ANOMALY":47.0737,"EPHEMERIS_TYPE":0,"CLASSIFICATION_TYPE":"U","NORAD_CAT_ID":39446,"ELEMENT_SET_NO":999,"REV_AT_EPOCH":66182,"BSTAR":0.0006286,"MEAN_MOTION_DOT":7.18e-5,"MEAN_MOTION_DDOT":0},{"OBJECT_NAME":"UNISAT-6","OBJECT_ID":"2014-033C","EPOCH":"2026-03-03T10:01:51.418272","MEAN_MOTION":14.87578755,"ECCENTRICITY":0.00464309,"INCLINATION":97.771,"RA_OF_ASC_NODE":217.1252,"ARG_OF_PERICENTER":58.1848,"MEAN_ANOMALY":302.3877,"EPHEMERIS_TYPE":0,"CLASSIFICATION_TYPE":"U","NORAD_CAT_ID":40012,"ELEMENT_SET_NO":999,"REV_AT_EPOCH":63043,"BSTAR":0.00046892253,"MEAN_MOTION_DOT":4.289e-5,"MEAN_MOTION_DDOT":0},{"OBJECT_NAME":"DUCHIFAT-1","OBJECT_ID":"2014-033M","EPOCH":"2026-03-03T16:38:46.147488","MEAN_MOTION":15.48953119,"ECCENTRICITY":0.0006619,"INCLINATION":98.064,"RA_OF_ASC_NODE":108.4184,"ARG_OF_PERICENTER":100.7475,"MEAN_ANOMALY":259.452,"EPHEMERIS_TYPE":0,"CLASSIFICATION_TYPE":"U","NORAD_CAT_ID":40021,"ELEMENT_SET_NO":999,"REV_AT_EPOCH":63934,"BSTAR":0.0013196,"MEAN_MOTION_DOT":0.00071797,"MEAN_MOTION_DDOT":0},{"OBJECT_NAME":"QB50P1","OBJECT_ID":"2014-033R","EPOCH":"2026-03-03T12:10:38.617824","MEAN_MOTION":15.16352684,"ECCENTRICITY":0.00076894,"INCLINATION":98.0997,"RA_OF_ASC_NODE":66.3728,"ARG_OF_PERICENTER":217.9822,"MEAN_ANOMALY":142.0868,"EPHEMERIS_TYPE":0,"CLASSIFICATION_TYPE":"U","NORAD_CAT_ID":40025,"ELEMENT_SET_NO":999,"REV_AT_EPOCH":63700,"BSTAR":0.00060375842,"MEAN_MOTION_DOT":0.00011655,"MEAN_MOTION_DDOT":0},{"OBJECT_NAME":"LILACSAT-2","OBJECT_ID":"2015-049K","EPOCH":"2026-03-03T19:49:25.321728","MEAN_MOTION":15.47764147,"ECCENTRICITY":0.0005588,"INCLINATION":97.4814,"RA_OF_ASC_NODE":95.8472,"ARG_OF_PERICENTER":274.8926,"MEAN_ANOMALY":85.1686,"EPHEMERIS_TYPE":0,"CLASSIFICATION_TYPE":"U","NORAD_CAT_ID":40908,"ELEMENT_SET_NO":999,"REV_AT_EPOCH":57943,"BSTAR":0.00043358,"MEAN_MOTION_DOT":0.00022425,"MEAN_MOTION_DDOT":0},{"OBJECT_NAME":"FOX-1A (AO-85)","OBJECT_ID":"2015-058D","EPOCH":"2026-03-03T18:06:19.307232","MEAN_MOTION":14.90292727,"ECCENTRICITY":0.0129213,"INCLINATION":64.7736,"RA_OF_ASC_NODE":246.4691,"ARG_OF_PERICENTER":98.322,"MEAN_ANOMALY":263.2567,"EPHEMERIS_TYPE":0,"CLASSIFICATION_TYPE":"U","NORAD_CAT_ID":40967,"ELEMENT_SET_NO":999,"REV_AT_EPOCH":9785,"BSTAR":0.00047771,"MEAN_MOTION_DOT":5.284e-5,"MEAN_MOTION_DDOT":0},{"OBJECT_NAME":"CAS-2T & KS-1Q","OBJECT_ID":"2016-066G","EPOCH":"2026-03-03T17:59:44.299392","MEAN_MOTION":14.44447987,"ECCENTRICITY":0.0343777,"INCLINATION":98.3898,"RA_OF_ASC_NODE":139.6652,"ARG_OF_PERICENTER":89.444,"MEAN_ANOMALY":274.6126,"EPHEMERIS_TYPE":0,"CLASSIFICATION_TYPE":"U","NORAD_CAT_ID":41847,"ELEMENT_SET_NO":999,"REV_AT_EPOCH":48957,"BSTAR":0.00027184,"MEAN_MOTION_DOT":1.89e-5,"MEAN_MOTION_DDOT":0},{"OBJECT_NAME":"RADFXSAT (FOX-1B)","OBJECT_ID":"2017-073E","EPOCH":"2026-03-03T18:24:15.712128","MEAN_MOTION":15.10717592,"ECCENTRICITY":0.015538,"INCLINATION":97.4872,"RA_OF_ASC_NODE":292.1886,"ARG_OF_PERICENTER":332.6956,"MEAN_ANOMALY":26.6167,"EPHEMERIS_TYPE":0,"CLASSIFICATION_TYPE":"U","NORAD_CAT_ID":43017,"ELEMENT_SET_NO":999,"REV_AT_EPOCH":44946,"BSTAR":0.00063746,"MEAN_MOTION_DOT":0.00014063,"MEAN_MOTION_DDOT":0},{"OBJECT_NAME":"DIWATA-2B","OBJECT_ID":"2018-084H","EPOCH":"2026-03-03T20:26:29.577408","MEAN_MOTION":14.99921929,"ECCENTRICITY":0.0011145,"INCLINATION":98.1031,"RA_OF_ASC_NODE":254.649,"ARG_OF_PERICENTER":145.0606,"MEAN_ANOMALY":215.135,"EPHEMERIS_TYPE":0,"CLASSIFICATION_TYPE":"U","NORAD_CAT_ID":43678,"ELEMENT_SET_NO":999,"REV_AT_EPOCH":40042,"BSTAR":0.00016256,"MEAN_MOTION_DOT":1.954e-5,"MEAN_MOTION_DDOT":0},{"OBJECT_NAME":"ES'HAIL 2","OBJECT_ID":"2018-090A","EPOCH":"2026-03-03T19:20:00.547296","MEAN_MOTION":1.00270972,"ECCENTRICITY":0.0002613,"INCLINATION":0.019,"RA_OF_ASC_NODE":229.8505,"ARG_OF_PERICENTER":146.3075,"MEAN_ANOMALY":101.1819,"EPHEMERIS_TYPE":0,"CLASSIFICATION_TYPE":"U","NORAD_CAT_ID":43700,"ELEMENT_SET_NO":999,"REV_AT_EPOCH":2662,"BSTAR":0,"MEAN_MOTION_DOT":1.3e-6,"MEAN_MOTION_DDOT":0},{"OBJECT_NAME":"FOX-1CLIFF (AO-95)","OBJECT_ID":"2018-099N","EPOCH":"2026-03-03T03:27:47.847456","MEAN_MOTION":15.24199958,"ECCENTRICITY":0.00088851,"INCLINATION":97.453,"RA_OF_ASC_NODE":122.9032,"ARG_OF_PERICENTER":10.7969,"MEAN_ANOMALY":349.3457,"EPHEMERIS_TYPE":0,"CLASSIFICATION_TYPE":"U","NORAD_CAT_ID":43770,"ELEMENT_SET_NO":999,"REV_AT_EPOCH":39705,"BSTAR":0.00055489738,"MEAN_MOTION_DOT":0.00013475,"MEAN_MOTION_DDOT":0},{"OBJECT_NAME":"ITASAT","OBJECT_ID":"2018-099AE","EPOCH":"2026-03-03T15:25:22.582272","MEAN_MOTION":15.17555336,"ECCENTRICITY":0.0012847,"INCLINATION":97.418,"RA_OF_ASC_NODE":116.2939,"ARG_OF_PERICENTER":7.8683,"MEAN_ANOMALY":352.275,"EPHEMERIS_TYPE":0,"CLASSIFICATION_TYPE":"U","NORAD_CAT_ID":43786,"ELEMENT_SET_NO":999,"REV_AT_EPOCH":39689,"BSTAR":0.00049452,"MEAN_MOTION_DOT":9.887e-5,"MEAN_MOTION_DDOT":0},{"OBJECT_NAME":"JY1SAT (JO-97)","OBJECT_ID":"2018-099AX","EPOCH":"2026-03-03T14:30:40.744800","MEAN_MOTION":15.30022235,"ECCENTRICITY":0.0004622,"INCLINATION":97.4266,"RA_OF_ASC_NODE":125.2819,"ARG_OF_PERICENTER":285.6842,"MEAN_ANOMALY":74.3888,"EPHEMERIS_TYPE":0,"CLASSIFICATION_TYPE":"U","NORAD_CAT_ID":43803,"ELEMENT_SET_NO":999,"REV_AT_EPOCH":39746,"BSTAR":0.00077746,"MEAN_MOTION_DOT":0.00022566,"MEAN_MOTION_DDOT":0},{"OBJECT_NAME":"UWE-4","OBJECT_ID":"2018-111E","EPOCH":"2026-03-03T18:16:07.032864","MEAN_MOTION":15.39499406,"ECCENTRICITY":0.0008744,"INCLINATION":97.5856,"RA_OF_ASC_NODE":346.8362,"ARG_OF_PERICENTER":2.0975,"MEAN_ANOMALY":358.0305,"EPHEMERIS_TYPE":0,"CLASSIFICATION_TYPE":"U","NORAD_CAT_ID":43880,"ELEMENT_SET_NO":999,"REV_AT_EPOCH":39452,"BSTAR":0.0010754,"MEAN_MOTION_DOT":0.00042354,"MEAN_MOTION_DDOT":0},{"OBJECT_NAME":"TIANYAN 01","OBJECT_ID":"2019-093C","EPOCH":"2026-03-03T19:53:24.432864","MEAN_MOTION":14.86325734,"ECCENTRICITY":0.0015044,"INCLINATION":97.7627,"RA_OF_ASC_NODE":137.6057,"ARG_OF_PERICENTER":75.1791,"MEAN_ANOMALY":285.109,"EPHEMERIS_TYPE":0,"CLASSIFICATION_TYPE":"U","NORAD_CAT_ID":44881,"ELEMENT_SET_NO":999,"REV_AT_EPOCH":33576,"BSTAR":0.00018686,"MEAN_MOTION_DOT":1.596e-5,"MEAN_MOTION_DDOT":0},{"OBJECT_NAME":"RS-44 & BREEZE-KM R/B","OBJECT_ID":"2019-096E","EPOCH":"2026-03-03T11:05:22.865280","MEAN_MOTION":12.79747398,"ECCENTRICITY":0.02181719,"INCLINATION":82.519,"RA_OF_ASC_NODE":49.9536,"ARG_OF_PERICENTER":31.847,"MEAN_ANOMALY":329.5611,"EPHEMERIS_TYPE":0,"CLASSIFICATION_TYPE":"U","NORAD_CAT_ID":44909,"ELEMENT_SET_NO":999,"REV_AT_EPOCH":28882,"BSTAR":-1.3046203e-5,"MEAN_MOTION_DOT":9.0e-8,"MEAN_MOTION_DDOT":0},{"OBJECT_NAME":"SALSAT","OBJECT_ID":"2020-068K","EPOCH":"2026-03-03T18:42:46.219104","MEAN_MOTION":15.28039347,"ECCENTRICITY":0.0008731,"INCLINATION":97.8847,"RA_OF_ASC_NODE":59.5668,"ARG_OF_PERICENTER":321.6728,"MEAN_ANOMALY":38.3888,"EPHEMERIS_TYPE":0,"CLASSIFICATION_TYPE":"U","NORAD_CAT_ID":46495,"ELEMENT_SET_NO":999,"REV_AT_EPOCH":29925,"BSTAR":0.00046597,"MEAN_MOTION_DOT":0.00012684,"MEAN_MOTION_DDOT":0}]
